STARLINK-30256          
1 57522U 23115B   26068.20523495 -.00005369  00000+0 -19069-3 0  9997
2 57522  43.0014   4.6316 0001742 264.2228  95.8424 15.26726159142277
FLOCK 4G-4              
1 62659U 25009BC  26068.75333732  .00011866  00000+0  45294-3 0  9997
2 62659  97.3994 150.7963 0001598 343.4316  16.6870 15.26803327121323
